STARLINK-2653_new
1 18665C 21044AD  21326.16676612  .00000874  00000-0  58571-4 0  3262
2 18665  53.0554 312.9847 0001580  68.6422  21.1437 15.06406938    10
STARLINK-2653_old
1 28665C 21044AD  21325.10990815 -.00002592  00000-0 -17365-3 0  3254
2 28665  53.0556 317.7290 0001528  69.0667  46.1566 15.06402112    15
